1 43013U 17073A   26197.81701927  .00000014  00000+0  27457-4 0  9992
2 43013  98.7772 137.0172 0001448 122.8399 237.2916 14.19516648448679
